start=new Date('2021-12-25T00:00:00.000Z').valueOf();
sats=[{"MEAN_ANOMALY":"282.4636","APOAPSIS":"548.182","ARG_OF_PERICENTER":"77.6505","CLASSIFICATION_TYPE":"U","MEAN_MOTION_DDOT":"0.0000000000000","OBJECT_NAME":"STARLINK-1456","LAUNCH_DATE":"2020-06-04","PERIAPSIS":"546.296","NORAD_CAT_ID":"45673","GP_ID":"192396277","SEMIMAJOR_AXIS":"6925.374","MEAN_ELEMENT_THEORY":"SGP4","FILE":"3250462","DECAY_DATE":null,"CENTER_NAME":"EARTH","RCS_SIZE":"LARGE","TLE_LINE2":"2 45673  53.0530 122.0794 0001362  77.6505 282.4636 15.06391683 87222","EPOCH":"2021-12-24T16:05:59.893440","COUNTRY_CODE":"US","TIME_SYSTEM":"UTC","OBJECT_ID":"2020-035S","SITE":"AFETR","ECCENTRICITY":"0.00013620","BSTAR":"0.00011707000000","EPHEMERIS_TYPE":"0","ELEMENT_SET_NO":"999","INCLINATION":"53.0530","REV_AT_EPOCH":"8722","MEAN_MOTION_DOT":"0.00001462","MEAN_MOTION":"15.06391683","OBJECT_TYPE":"PAYLOAD","TLE_LINE1":"1 45673U 20035S   21358.67083210  .00001462  00000-0  11707-3 0  9993","PERIOD":"95.593","RA_OF_ASC_NODE":"122.0794","REF_FRAME":"TEME"},{"SEMIMAJOR_AXIS":"6925.373","GP_ID":"192395025","PERIAPSIS":"546.242","NORAD_CAT_ID":"45674","LAUNCH_DATE":"2020-06-04","OBJECT_NAME":"STARLINK-1457","MEAN_MOTION_DDOT":"0.0000000000000","CLASSIFICATION_TYPE":"U","ARG_OF_PERICENTER":"93.6377","MEAN_ANOMALY":"266.4777","APOAPSIS":"548.235","EPOCH":"2021-12-24T21:03:13.847904","TLE_LINE2":"2 45674  53.0534 121.1496 0001439  93.6377 266.4777 15.06391934 87223","COUNTRY_CODE":"US","RCS_SIZE":"LARGE","CENTER_NAME":"EARTH","DECAY_DATE":null,"FILE":"3250462","MEAN_ELEMENT_THEORY":"SGP4","MEAN_MOTION_DOT":"0.00000822","INCLINATION":"53.0534","REV_AT_EPOCH":"8722","ELEMENT_SET_NO":"999","BSTAR":"0.00007408800000","EPHEMERIS_TYPE":"0","SITE":"AFETR","ECCENTRICITY":"0.00014390","OBJECT_ID":"2020-035T","TIME_SYSTEM":"UTC","REF_FRAME":"TEME","RA_OF_ASC_NODE":"121.1496","PERIOD":"95.593","TLE_LINE1":"1 45674U 20035T   21358.87724361  .00000822  00000-0  74088-4 0  9996","OBJECT_TYPE":"PAYLOAD","MEAN_MOTION":"15.06391934"},{"OBJECT_NAME":"STARLINK-1458","LAUNCH_DATE":"2020-06-04","PERIAPSIS":"546.290","NORAD_CAT_ID":"45675","GP_ID":"192395275","SEMIMAJOR_AXIS":"6925.376","MEAN_ANOMALY":"275.6381","APOAPSIS":"548.191","ARG_OF_PERICENTER":"84.4764","CLASSIFICATION_TYPE":"U","MEAN_MOTION_DDOT":"0.0000000000000","CENTER_NAME":"EARTH","RCS_SIZE":"LARGE","COUNTRY_CODE":"US","TLE_LINE2":"2 45675  53.0517 121.4979 0001373  84.4764 275.6381 15.06391207 87203","EPOCH":"2021-12-24T19:11:45.887424","MEAN_ELEMENT_THEORY":"SGP4","FILE":"3250462","DECAY_DATE":null,"MEAN_MOTION_DOT":"-0.00000794","TIME_SYSTEM":"UTC","OBJECT_ID":"2020-035U","ECCENTRICITY":"0.00013730","SITE":"AFETR","EPHEMERIS_TYPE":"0","BSTAR":"-0.00003440000000","ELEMENT_SET_NO":"999","INCLINATION":"53.0517","REV_AT_EPOCH":"8720","TLE_LINE1":"1 45675U 20035U   21358.79983666 -.00000794  00000-0 -34400-4 0  9997","PERIOD":"95.593","RA_OF_ASC_NODE":"121.4979","REF_FRAME":"TEME","MEAN_MOTION":"15.06391207","OBJECT_TYPE":"PAYLOAD"},{"LAUNCH_DATE":"2020-06-04","OBJECT_NAME":"STARLINK-1460","PERIAPSIS":"546.285","NORAD_CAT_ID":"45676","GP_ID":"192395527","SEMIMAJOR_AXIS":"6925.368","ARG_OF_PERICENTER":"88.1381","APOAPSIS":"548.181","MEAN_ANOMALY":"271.9764","CLASSIFICATION_TYPE":"U","MEAN_MOTION_DDOT":"0.0000000000000","RCS_SIZE":"LARGE","CENTER_NAME":"EARTH","EPOCH":"2021-12-24T15:18:13.192416","TLE_LINE2":"2 45676  53.0544 122.2161 0001369  88.1381 271.9764 15.06393614 87171","COUNTRY_CODE":"US","MEAN_ELEMENT_THEORY":"SGP4","FILE":"3250462","DECAY_DATE":null,"MEAN_MOTION_DOT":"-0.00000382","ECCENTRICITY":"0.00013690","SITE":"AFETR","OBJECT_ID":"2020-035V","TIME_SYSTEM":"UTC","EPHEMERIS_TYPE":"0","BSTAR":"-0.00000672560000","INCLINATION":"53.0544","REV_AT_EPOCH":"8717","ELEMENT_SET_NO":"999","TLE_LINE1":"1 45676U 20035V   21358.63765269 -.00000382  00000-0 -67256-5 0  9997","PERIOD":"95.593","RA_OF_ASC_NODE":"122.2161","REF_FRAME":"TEME","MEAN_MOTION":"15.06393614","OBJECT_TYPE":"PAYLOAD"},{"TLE_LINE1":"1 45677U 20035W   21358.84775820  .00001989  00000-0  15239-3 0  9999","PERIOD":"95.593","RA_OF_ASC_NODE":"121.2911","REF_FRAME":"TEME","MEAN_MOTION":"15.06390180","OBJECT_TYPE":"PAYLOAD","MEAN_MOTION_DOT":"0.00001989","OBJECT_ID":"2020-035W","TIME_SYSTEM":"UTC","ECCENTRICITY":"0.00013830","SITE":"AFETR","EPHEMERIS_TYPE":"0","BSTAR":"0.00015239000000","ELEMENT_SET_NO":"999","INCLINATION":"53.0552","REV_AT_EPOCH":"8724","CENTER_NAME":"EARTH","RCS_SIZE":"LARGE","EPOCH":"2021-12-24T20:20:46.308480","TLE_LINE2":"2 45677  53.0552 121.2911 0001383  87.7800 272.3348 15.06390180 87246","COUNTRY_CODE":"US","MEAN_ELEMENT_THEORY":"SGP4","FILE":"3250462","DECAY_DATE":null,"OBJECT_NAME":"STARLINK-1392","LAUNCH_DATE":"2020-06-04","PERIAPSIS":"546.286","NORAD_CAT_ID":"45677","GP_ID":"192395778","SEMIMAJOR_AXIS":"6925.379","APOAPSIS":"548.201","MEAN_ANOMALY":"272.3348","ARG_OF_PERICENTER":"87.7800","CLASSIFICATION_TYPE":"U","MEAN_MOTION_DDOT":"0.0000000000000"},{"COUNTRY_CODE":"US","TLE_LINE2":"2 45678  53.0533 111.3071 0001487  93.2104 266.9055 15.06394294 87364","EPOCH":"2021-12-24T20:11:28.957632","CENTER_NAME":"EARTH","RCS_SIZE":"LARGE","DECAY_DATE":null,"MEAN_ELEMENT_THEORY":"SGP4","FILE":"3250462","GP_ID":"192394526","SEMIMAJOR_AXIS":"6925.366","OBJECT_NAME":"STARLINK-1393","LAUNCH_DATE":"2020-06-04","PERIAPSIS":"546.201","NORAD_CAT_ID":"45678","CLASSIFICATION_TYPE":"U","MEAN_MOTION_DDOT":"0.0000000000000","MEAN_ANOMALY":"266.9055","APOAPSIS":"548.261","ARG_OF_PERICENTER":"93.2104","RA_OF_ASC_NODE":"111.3071","REF_FRAME":"TEME","TLE_LINE1":"1 45678U 20035X   21358.84130738  .00000503  00000-0  52650-4 0  9993","PERIOD":"95.593","OBJECT_TYPE":"PAYLOAD","MEAN_MOTION":"15.06394294","MEAN_MOTION_DOT":"0.00000503","EPHEMERIS_TYPE":"0","BSTAR":"0.00005265000000","ELEMENT_SET_NO":"999","INCLINATION":"53.0533","REV_AT_EPOCH":"8736","TIME_SYSTEM":"UTC","OBJECT_ID":"2020-035X","ECCENTRICITY":"0.00014870","SITE":"AFETR"},{"ARG_OF_PERICENTER":"99.2504","APOAPSIS":"548.135","MEAN_ANOMALY":"260.8633","CLASSIFICATION_TYPE":"U","MEAN_MOTION_DDOT":"0.0000000000000","LAUNCH_DATE":"2020-06-04","OBJECT_NAME":"STARLINK-1394","NORAD_CAT_ID":"45679","PERIAPSIS":"546.326","GP_ID":"192394776","SEMIMAJOR_AXIS":"6925.366","MEAN_ELEMENT_THEORY":"SGP4","FILE":"3250462","DECAY_DATE":null,"RCS_SIZE":"LARGE","CENTER_NAME":"EARTH","TLE_LINE2":"2 45679  53.0544 111.2991 0001306  99.2504 260.8633 15.06394460 87389","COUNTRY_CODE":"US","EPOCH":"2021-12-24T20:16:47.377920","ECCENTRICITY":"0.00013060","SITE":"AFETR","TIME_SYSTEM":"UTC","OBJECT_ID":"2020-035Y","BSTAR":"-0.00001886000000","EPHEMERIS_TYPE":"0","REV_AT_EPOCH":"8738","INCLINATION":"53.0544","ELEMENT_SET_NO":"999","MEAN_MOTION_DOT":"-0.00000562","MEAN_MOTION":"15.06394460","OBJECT_TYPE":"PAYLOAD","TLE_LINE1":"1 45679U 20035Y   21358.84499280 -.00000562  00000-0 -18860-4 0  9996","PERIOD":"95.592","RA_OF_ASC_NODE":"111.2991","REF_FRAME":"TEME"},{"BSTAR":"-0.01059400000000","EPHEMERIS_TYPE":"0","REV_AT_EPOCH":"8732","INCLINATION":"53.0543","ELEMENT_SET_NO":"999","SITE":"AFETR","ECCENTRICITY":"0.00070100","OBJECT_ID":"2020-035Z","TIME_SYSTEM":"UTC","MEAN_MOTION_DOT":"-0.00150136","OBJECT_TYPE":"PAYLOAD","MEAN_MOTION":"15.05240631","RA_OF_ASC_NODE":"112.7617","REF_FRAME":"TEME","TLE_LINE1":"1 45680U 20035Z   21358.52157087 -.00150136  00000-0 -10594-1 0  9995","PERIOD":"95.666","CLASSIFICATION_TYPE":"U","MEAN_MOTION_DDOT":"0.0000000000000","ARG_OF_PERICENTER":"197.7631","APOAPSIS":"555.626","MEAN_ANOMALY":"162.3113","GP_ID":"192361992","SEMIMAJOR_AXIS":"6928.904","LAUNCH_DATE":"2020-06-04","OBJECT_NAME":"STARLINK-1395","PERIAPSIS":"545.912","NORAD_CAT_ID":"45680","DECAY_DATE":null,"MEAN_ELEMENT_THEORY":"SGP4","FILE":"3250080","TLE_LINE2":"2 45680  53.0543 112.7617 0007010 197.7631 162.3113 15.05240631 87326","EPOCH":"2021-12-24T12:31:03.723168","COUNTRY_CODE":"US","RCS_SIZE":"LARGE","CENTER_NAME":"EARTH"},{"LAUNCH_DATE":"2020-06-04","OBJECT_NAME":"STARLINK-1396","NORAD_CAT_ID":"45681","PERIAPSIS":"546.328","GP_ID":"192396278","SEMIMAJOR_AXIS":"6925.379","ARG_OF_PERICENTER":"98.8797","MEAN_ANOMALY":"261.2342","APOAPSIS":"548.161","CLASSIFICATION_TYPE":"U","MEAN_MOTION_DDOT":"0.0000000000000","RCS_SIZE":"LARGE","CENTER_NAME":"EARTH","TLE_LINE2":"2 45681  53.0536 111.5683 0001324  98.8797 261.2342 15.06389917 87375","COUNTRY_CODE":"US","EPOCH":"2021-12-24T18:46:33.381984","MEAN_ELEMENT_THEORY":"SGP4","FILE":"3250462","DECAY_DATE":null,"MEAN_MOTION_DOT":"0.00001246","ECCENTRICITY":"0.00013240","SITE":"AFETR","TIME_SYSTEM":"UTC","OBJECT_ID":"2020-035AA","EPHEMERIS_TYPE":"0","BSTAR":"0.00010255000000","REV_AT_EPOCH":"8737","INCLINATION":"53.0536","ELEMENT_SET_NO":"999","TLE_LINE1":"1 45681U 20035AA  21358.78233081  .00001246  00000-0  10255-3 0  9994","PERIOD":"95.593","RA_OF_ASC_NODE":"111.5683","REF_FRAME":"TEME","MEAN_MOTION":"15.06389917","OBJECT_TYPE":"PAYLOAD"},{"MEAN_MOTION_DOT":"0.00004426","ECCENTRICITY":"0.00014120","SITE":"AFETR","TIME_SYSTEM":"UTC","OBJECT_ID":"2020-035AB","INCLINATION":"53.0523","REV_AT_EPOCH":"8736","ELEMENT_SET_NO":"999","BSTAR":"0.00031584000000","EPHEMERIS_TYPE":"0","PERIOD":"95.592","TLE_LINE1":"1 45682U 20035AB  21358.78970325  .00004426  00000-0  31584-3 0  9995","REF_FRAME":"TEME","RA_OF_ASC_NODE":"111.5431","MEAN_MOTION":"15.06401308","OBJECT_TYPE":"PAYLOAD","PERIAPSIS":"546.232","NORAD_CAT_ID":"45682","LAUNCH_DATE":"2020-06-04","OBJECT_NAME":"STARLINK-1397","SEMIMAJOR_AXIS":"6925.345","GP_ID":"192395026","ARG_OF_PERICENTER":"87.3403","APOAPSIS":"548.187","MEAN_ANOMALY":"272.7747","MEAN_MOTION_DDOT":"0.0000000000000","CLASSIFICATION_TYPE":"U","RCS_SIZE":"LARGE","CENTER_NAME":"EARTH","COUNTRY_CODE":"US","TLE_LINE2":"2 45682  53.0523 111.5431 0001412  87.3403 272.7747 15.06401308 87362","EPOCH":"2021-12-24T18:57:10.360800","FILE":"3250462","MEAN_ELEMENT_THEORY":"SGP4","DECAY_DATE":null}];
